STARLINK-2386           
1 47805U 21018U   26068.68055561  .00000647  00000+0  62334-4 0  9992
2 47805  53.0560 231.8999 0000883 115.4205 244.6876 15.06384501276873
DISKSAT D               
1 67221U 25305C   26068.55257179  .00011599  00000+0  76841-3 0  9999
2 67221  45.0023 251.6339 0003712 319.2749  40.7848 15.07416577 12277
