[{"OBJECT_NAME":"STARLINK-2386","OBJECT_ID":"2021-018U","EPOCH":"2026-03-09T16:20:00.005568","MEAN_MOTION":15.06384501,"ECCENTRICITY":8.827e-5,"INCLINATION":53.056,"RA_OF_ASC_NODE":231.8999,"ARG_OF_PERICENTER":115.4205,"MEAN_ANOMALY":244.6876,"EPHEMERIS_TYPE":0,"CLASSIFICATION_TYPE":"U","NORAD_CAT_ID":47805,"ELEMENT_SET_NO":999,"REV_AT_EPOCH":27687,"BSTAR":6.2334433e-5,"MEAN_MOTION_DOT":6.47e-6,"MEAN_MOTION_DDOT":0},{"OBJECT_NAME":"DISKSAT D","OBJECT_ID":"2025-305C","EPOCH":"2026-03-09T13:15:42.202656","MEAN_MOTION":15.07416577,"ECCENTRICITY":0.00037124,"INCLINATION":45.0023,"RA_OF_ASC_NODE":251.6339,"ARG_OF_PERICENTER":319.2749,"MEAN_ANOMALY":40.7848,"EPHEMERIS_TYPE":0,"CLASSIFICATION_TYPE":"U","NORAD_CAT_ID":67221,"ELEMENT_SET_NO":999,"REV_AT_EPOCH":1227,"BSTAR":0.00076840651,"MEAN_MOTION_DOT":0.00011599,"MEAN_MOTION_DDOT":0}]
